NORAD_CAT_ID,OBJECT_NAME,OBJECT_TYPE,EPOCH,MEAN_MOTION,ECCENTRICITY,INCLINATION,RA_OF_ASC_NODE,ARG_OF_PERICENTER,MEAN_ANOMALY,BSTAR,MEAN_MOTION_DOT,MEAN_MOTION_DDOT,TLE_LINE0,TLE_LINE1,TLE_LINE2,SEMIMAJOR_AXIS,PERIOD,APOGEE,PERIGEE,DECAYED
50202.0,STARLINK-3256,PAYLOAD,2023-09-09 14:18:37,15.08835118,0.0001661,53.2182,13.6661,92.6926,267.4257,5.6399e-05,6.1e-06,0.0,0 STARLINK-3256,1 50202U 21125AY  23252.59626438  .00000610  00000-0  56399-4 0  9990,2 50202  53.2182  13.6661 0001661  92.6926 267.4257 15.08835118 99037,6917.895,95.438,540.909,538.611,0.0
50202.0,STARLINK-3256,PAYLOAD,2023-09-09 17:29:23,15.08845043,0.0001388,53.2173,13.0701,84.5856,275.5295,0.00025738,3.811e-05,0.0,0 STARLINK-3256,1 50202U 21125AY  23252.72874194  .00003811  00000-0  25738-3 0  9997,2 50202  53.2173  13.0701 0001388  84.5856 275.5295 15.08845043 98572,6917.865,95.437,540.69,538.77,0.0
50202.0,STARLINK-3256,PAYLOAD,2023-09-10 14:09:24,15.08850974,0.000146,53.2168,9.2048,84.1567,275.9592,0.00059313,9.167e-05,0.0,0 STARLINK-3256,1 50202U 21125AY  23253.58986271  .00009167  00000-0  59313-3 0  9998,2 50202  53.2168   9.2048 0001460  84.1567 275.9592 15.08850974 99184,6917.847,95.437,540.722,538.702,0.0
50202.0,STARLINK-3256,PAYLOAD,2023-09-11 14:00:11,15.08847429,0.0001208,53.2177,4.7438,93.4833,266.6298,0.00020463,2.971e-05,0.0,0 STARLINK-3256,1 50202U 21125AY  23254.58346091  .00002971  00000-0  20463-3 0  9999,2 50202  53.2177   4.7438 0001208  93.4833 266.6298 15.08847429 99334,6917.858,95.437,540.558,538.887,0.0
50202.0,STARLINK-3256,PAYLOAD,2023-09-11 17:10:57,15.08849617,0.0001321,53.2168,4.149,92.471,267.6434,0.00024348,3.59e-05,0.0,0 STARLINK-3256,1 50202U 21125AY  23254.71593971  .00003590  00000-0  24348-3 0  9999,2 50202  53.2168   4.1490 0001321  92.4710 267.6434 15.08849617 98877,6917.851,95.437,540.63,538.802,0.0
50202.0,STARLINK-3256,PAYLOAD,2023-09-12 10:40:11,15.08842729,0.0001569,53.2184,0.8763,105.0275,255.0891,8.4837e-05,1.063e-05,0.0,0 STARLINK-3256,1 50202U 21125AY  23255.44457977  .00001063  00000-0  84837-4 0  9998,2 50202  53.2184   0.8763 0001569 105.0275 255.0891 15.08842729 98989,6917.872,95.437,540.822,538.652,0.0
50202.0,STARLINK-3256,PAYLOAD,2023-09-12 13:50:58,15.08846574,0.0001645,53.2187,0.2868,78.8798,281.2379,0.00013194,1.813e-05,0.0,0 STARLINK-3256,1 50202U 21125AY  23255.57706037  .00001813  00000-0  13194-3 0  9996,2 50202  53.2187   0.2868 0001645  78.8798 281.2379 15.08846574 99484,6917.86,95.437,540.863,538.587,0.0
50202.0,STARLINK-3256,PAYLOAD,2023-09-12 18:37:07,15.08849694,0.0001593,53.219,359.3935,82.1851,277.9322,0.00013152,1.806e-05,0.0,0 STARLINK-3256,1 50202U 21125AY  23255.77577747  .00001806  00000-0  13152-3 0  9998,2 50202  53.2190 359.3935 0001593  82.1851 277.9322 15.08849694 99511,6917.851,95.437,540.818,538.614,0.0
50202.0,STARLINK-3256,PAYLOAD,2023-09-13 10:30:58,15.08855414,0.000148,53.2194,356.4196,98.3767,261.7393,0.0002638,3.915e-05,0.0,0 STARLINK-3256,1 50202U 21125AY  23256.43817226  .00003915  00000-0  26380-3 0  9991,2 50202  53.2194 356.4196 0001480  98.3767 261.7393 15.08855414 99136,6917.833,95.437,540.722,538.674,0.0
50202.0,STARLINK-3256,PAYLOAD,2023-09-13 12:06:21,15.08856504,0.000151,53.2195,356.1224,95.4806,264.6359,0.00029248,4.372e-05,0.0,0 STARLINK-3256,1 50202U 21125AY  23256.50441196  .00004372  00000-0  29248-3 0  9992,2 50202  53.2195 356.1224 0001510  95.4806 264.6359 15.08856504 99621,6917.83,95.437,540.74,538.65,0.0
50202.0,STARLINK-3256,PAYLOAD,2023-09-13 18:27:52,15.08869769,0.0001425,53.2182,354.9302,103.2088,256.9063,0.00049309,7.575e-05,0.0,0 STARLINK-3256,1 50202U 21125AY  23256.76936247  .00007575  00000-0  49309-3 0  9994,2 50202  53.2182 354.9302 0001425 103.2088 256.9063 15.08869769 99662,6917.789,95.436,540.64,538.669,0.0
50202.0,STARLINK-3256,PAYLOAD,2023-09-13 23:14:02,15.08874487,0.0001529,53.2183,354.0376,108.2955,251.8204,0.00061901,9.586e-05,0.0,0 STARLINK-3256,1 50202U 21125AY  23256.96807951  .00009586  00000-0  61901-3 0  9991,2 50202  53.2183 354.0376 0001529 108.2955 251.8204 15.08874487 99213,6917.775,95.435,540.698,538.582,0.0
50202.0,STARLINK-3256,PAYLOAD,2023-09-14 10:21:46,15.08812567,0.0001465,53.2196,351.9605,71.759,288.3562,-0.00054393,-8.928e-05,0.0,0 STARLINK-3256,1 50202U 21125AY  23257.43178910 -.00008928  00000-0 -54393-3 0  9998,2 50202  53.2196 351.9605 0001465  71.7590 288.3562 15.08812567 99286,6917.964,95.439,540.843,538.816,0.0
50202.0,STARLINK-3256,PAYLOAD,2023-09-14 13:32:33,15.08812732,0.0001454,53.2195,351.365,79.5874,280.5282,-0.00046726,-7.711e-05,0.0,0 STARLINK-3256,1 50202U 21125AY  23257.56427085 -.00007711  00000-0 -46726-3 0  9992,2 50202  53.2195 351.3650 0001454  79.5874 280.5282 15.08812732 99780,6917.964,95.439,540.835,538.823,0.0
50202.0,STARLINK-3256,PAYLOAD,2023-09-14 23:04:52,15.08818117,0.000137,53.2191,349.5815,78.466,281.6486,-0.00011424,-2.104e-05,0.0,0 STARLINK-3256,1 50202U 21125AY  23257.96171576 -.00002104  00000-0 -11424-3 0  9995,2 50202  53.2191 349.5815 0001370  78.4660 281.6486 15.08818117 99361,6917.947,95.439,540.76,538.865,0.0
50202.0,STARLINK-3256,PAYLOAD,2023-09-15 10:12:34,15.08835124,0.000132,53.219,347.4987,74.2679,285.8459,0.00048657,7.463e-05,0.0,0 STARLINK-3256,1 50202U 21125AY  23258.42539776  .00007463  00000-0  48657-3 0  9996,2 50202  53.2190 347.4987 0001320  74.2679 285.8459 15.08835124 99437,6917.895,95.438,540.673,538.847,0.0
50202.0,STARLINK-3256,PAYLOAD,2023-09-15 13:23:20,15.08837687,0.000141,53.2188,346.9041,69.727,290.3873,0.0010181,0.00015951,0.0,0 STARLINK-3256,1 50202U 21125AY  23258.55788166  .00015951  00000-0  10181-2 0  9990,2 50202  53.2188 346.9041 0001410  69.7270 290.3873 15.08837687 99937,6917.887,95.438,540.728,538.777,0.0
50202.0,STARLINK-3256,PAYLOAD,2023-09-15 22:55:39,15.08865813,0.0001355,53.2177,345.1205,68.9025,291.2112,0.0012599,0.00019834,0.0,0 STARLINK-3256,1 50202U 21125AY  23258.95531579  .00019834  00000-0  12599-2 0  9997,2 50202  53.2177 345.1205 0001355  68.9025 291.2112 15.08865813 99517,6917.801,95.436,540.604,538.729,0.0
50202.0,STARLINK-3256,PAYLOAD,2023-09-16 10:03:21,15.08858041,0.0001442,53.2167,343.0367,61.3501,298.7636,0.00072975,0.00011351,0.0,0 STARLINK-3256,1 50202U 21125AY  23259.41899579  .00011351  00000-0  72975-3 0  9997,2 50202  53.2167 343.0367 0001442  61.3501 298.7636 15.08858041 99580,6917.825,95.436,540.688,538.693,0.0
50202.0,STARLINK-3256,PAYLOAD,2023-09-16 13:14:07,15.08864874,0.0001482,53.2176,342.4446,60.7769,299.3371,0.00083663,0.00013061,0.0,0 STARLINK-3256,1 50202U 21125AY  23259.55147316  .00013061  00000-0  83663-3 0  9993,2 50202  53.2176 342.4446 0001482  60.7769 299.3371 15.08864874100086,6917.804,95.436,540.695,538.644,0.0
50202.0,STARLINK-3256,PAYLOAD,2023-09-16 14:49:30,15.08870136,0.0001409,53.2175,342.1462,63.4789,296.6347,0.0010225,0.00016036,0.0,0 STARLINK-3256,1 50202U 21125AY  23259.61771140  .00016036  00000-0  10225-2 0  9996,2 50202  53.2175 342.1462 0001409  63.4789 296.6347 15.08870136 99618,6917.788,95.436,540.628,538.679,0.0
50202.0,STARLINK-3256,PAYLOAD,2023-09-17 09:54:07,15.08855084,0.000123,53.2172,338.5778,84.3752,275.738,0.0016041,0.00025344,0.0,0 STARLINK-3256,1 50202U 21125AY  23260.41259113  .00025344  00000-0  16041-2 0  9991,2 50202  53.2172 338.5778 0001230  84.3752 275.7380 15.08855084 99731,6917.834,95.437,540.55,538.848,0.0
50202.0,STARLINK-3256,PAYLOAD,2023-09-17 11:29:30,15.08858968,0.0001527,53.2174,338.281,85.3355,274.7812,0.00064945,0.00010068,0.0,0 STARLINK-3256,1 50202U 21125AY  23260.47882918  .00010068  00000-0  64945-3 0  9996,2 50202  53.2174 338.2810 0001527  85.3355 274.7812 15.08858968100226,6917.822,95.436,540.744,538.631,0.0
50202.0,STARLINK-3256,PAYLOAD,2023-09-17 22:37:12,15.08846806,0.0001756,53.2182,336.2,75.243,284.8757,0.00042893,6.546e-05,0.0,0 STARLINK-3256,1 50202U 21125AY  23260.94251021  .00006546  00000-0  42893-3 0  9997,2 50202  53.2182 336.2000 0001756  75.2430 284.8757 15.08846806 99810,6917.86,95.437,540.939,538.51,0.0
50202.0,STARLINK-3256,PAYLOAD,2023-09-18 11:20:17,15.08850453,0.0001503,53.2175,333.8199,79.832,280.2841,0.00047754,7.322e-05,0.0,0 STARLINK-3256,1 50202U 21125AY  23261.47242726  .00007322  00000-0  47754-3 0  9992,2 50202  53.2175 333.8199 0001503  79.8320 280.2841 15.08850453100373,6917.848,95.437,540.753,538.674,0.0
50202.0,STARLINK-3256,PAYLOAD,2023-09-18 16:06:26,15.08859845,0.0001458,53.2173,332.9271,85.7217,274.3942,0.00081802,0.00012762,0.0,0 STARLINK-3256,1 50202U 21125AY  23261.67114415  .00012762  00000-0  81802-3 0  9993,2 50202  53.2173 332.9271 0001458  85.7217 274.3942 15.08859845100406,6917.82,95.436,540.693,538.676,0.0
50202.0,STARLINK-3256,PAYLOAD,2023-09-18 22:27:59,15.08845076,0.000106,53.2177,331.737,105.6352,254.4757,0.00025885,3.835e-05,0.0,0 STARLINK-3256,1 50202U 21125AY  23261.93610479  .00003835  00000-0  25885-3 0  9993,2 50202  53.2177 331.7370 0001060 105.6352 254.4757 15.08845076 99960,6917.865,95.437,540.463,538.997,0.0
50202.0,STARLINK-3256,PAYLOAD,2023-09-19 15:57:13,15.08878157,0.0001464,53.217,328.4665,100.592,259.5237,0.0013773,0.00021723,0.0,0 STARLINK-3256,1 50202U 21125AY  23262.66473571  .00021723  00000-0  13773-2 0  9992,2 50202  53.2170 328.4665 0001464 100.5920 259.5237 15.08878157100076,6917.764,95.435,540.642,538.616,0.0
50202.0,STARLINK-3256,PAYLOAD,2023-09-20 04:40:19,15.08827999,0.0001491,53.2172,326.0878,109.4026,250.7128,0.00054118,8.333e-05,0.0,0 STARLINK-3256,1 50202U 21125AY  23263.19466916  .00008333  00000-0  54118-3 0  9997,2 50202  53.2172 326.0878 0001491 109.4026 250.7128 15.08827999100152,6917.917,95.438,540.814,538.751,0.0
50202.0,STARLINK-3256,PAYLOAD,2023-09-20 11:01:52,15.08817895,0.0001367,53.2171,324.8984,103.4157,256.6988,0.0010237,0.00016032,0.0,0 STARLINK-3256,1 50202U 21125AY  23263.45963477  .00016032  00000-0  10237-2 0  9998,2 50202  53.2171 324.8984 0001367 103.4157 256.6988 15.08817895100676,6917.948,95.439,540.759,538.867,0.0
